{
  "type": "FeatureCollection",
  "features": [
    {
      "type": "Feature",
      "properties": {
        "norad_id": 34389,
        "name": "COSMOS 2251 DEB",
        "group": "cosmos-2251-debris",
        "lat": -45.14888132305275,
        "lon": -124.54251931308579,
        "alt_km": 747.0942478521356,
        "timestamp": "2025-12-11T10:53:16.284074+00:00",
        "meta_object_name": "COSMOS 2251 DEB",
        "meta_object_id": "1993-036QE",
        "meta_epoch": "2025-12-10T18:35:37.225824",
        "meta_mean_motion": 14.41525543,
        "meta_eccentricity": 0.00288178,
        "meta_inclination": 74.0193,
        "meta_ra_of_asc_node": 253.4577,
        "meta_arg_of_pericenter": 5.8457,
        "meta_mean_anomaly": 25.1274,
        "meta_ephemeris_type": 0,
        "meta_classification_type": "U",
        "meta_norad_cat_id": 34389,
        "meta_element_set_no": 999,
        "meta_rev_at_epoch": 87984,
        "meta_bstar": 0.00064633379,
        "meta_mean_motion_dot": 2.084e-05,
        "meta_mean_motion_ddot": 0,
        "tle_line1": "1 34389U 93036QE  25344.77473641  .00002084  00000+0  64633-3 0  9993",
        "tle_line2": "2 34389  74.0193 253.4577 0028817   5.8457  25.1274 14.41525543879842"
      },
      "geometry": {
        "type": "Point",
        "coordinates": [
          -124.54251931308579,
          -45.14888132305275
        ]
      }
    },
    {
      "type": "Feature",
      "properties": {
        "norad_id": 34396,
        "name": "COSMOS 2251 DEB",
        "group": "cosmos-2251-debris",
        "lat": 73.26260184053926,
        "lon": -161.21604964431933,
        "alt_km": 639.2869998547312,
        "timestamp": "2025-12-11T10:53:16.284086+00:00",
        "meta_object_name": "COSMOS 2251 DEB",
        "meta_object_id": "1993-036QM",
        "meta_epoch": "2025-12-10T20:34:12.345312",
        "meta_mean_motion": 14.74331674,
        "meta_eccentricity": 0.00062251,
        "meta_inclination": 74.0288,
        "meta_ra_of_asc_node": 127.7092,
        "meta_arg_of_pericenter": 169.5528,
        "meta_mean_anomaly": 350.4047,
        "meta_ephemeris_type": 0,
        "meta_classification_type": "U",
        "meta_norad_cat_id": 34396,
        "meta_element_set_no": 999,
        "meta_rev_at_epoch": 88318,
        "meta_bstar": 0.003749553,
        "meta_mean_motion_dot": 0.00024907,
        "meta_mean_motion_ddot": 0,
        "tle_line1": "1 34396U 93036QM  25344.85708733  .00024907  00000+0  37496-2 0  9997",
        "tle_line2": "2 34396  74.0288 127.7092 0006225 169.5528 350.4047 14.74331674883186"
      },
      "geometry": {
        "type": "Point",
        "coordinates": [
          -161.21604964431933,
          73.26260184053926
        ]
      }
    },
    {
      "type": "Feature",
      "properties": {
        "norad_id": 34400,
        "name": "COSMOS 2251 DEB",
        "group": "cosmos-2251-debris",
        "lat": 60.301936898707844,
        "lon": 56.48813608267217,
        "alt_km": 406.28716018443265,
        "timestamp": "2025-12-11T10:53:16.284096+00:00",
        "meta_object_name": "COSMOS 2251 DEB",
        "meta_object_id": "1993-036QR",
        "meta_epoch": "2025-12-11T04:25:27.020064",
        "meta_mean_motion": 15.52489397,
        "meta_eccentricity": 0.0005597,
        "meta_inclination": 73.9663,
        "meta_ra_of_asc_node": 26.8029,
        "meta_arg_of_pericenter": 268.6703,
        "meta_mean_anomaly": 91.3869,
        "meta_ephemeris_type": 0,
        "meta_classification_type": "U",
        "meta_norad_cat_id": 34400,
        "meta_element_set_no": 999,
        "meta_rev_at_epoch": 89950,
        "meta_bstar": 0.0051214,
        "meta_mean_motion_dot": 0.00327232,
        "meta_mean_motion_ddot": 0,
        "tle_line1": "1 34400U 93036QR  25345.18434051  .00327232  00000+0  51214-2 0  9990",
        "tle_line2": "2 34400  73.9663  26.8029 0005597 268.6703  91.3869 15.52489397899502"
      },
      "geometry": {
        "type": "Point",
        "coordinates": [
          56.48813608267217,
          60.301936898707844
        ]
      }
    },
    {
      "type": "Feature",
      "properties": {
        "norad_id": 34409,
        "name": "COSMOS 2251 DEB",
        "group": "cosmos-2251-debris",
        "lat": 49.146889190225565,
        "lon": -31.426751322945215,
        "alt_km": 644.8216647328654,
        "timestamp": "2025-12-11T10:53:16.284107+00:00",
        "meta_object_name": "COSMOS 2251 DEB",
        "meta_object_id": "1993-036RA",
        "meta_epoch": "2025-12-10T15:42:02.401344",
        "meta_mean_motion": 14.58019012,
        "meta_eccentricity": 0.007975,
        "meta_inclination": 74.0642,
        "meta_ra_of_asc_node": 310.7983,
        "meta_arg_of_pericenter": 25.6783,
        "meta_mean_anomaly": 151.2638,
        "meta_ephemeris_type": 0,
        "meta_classification_type": "U",
        "meta_norad_cat_id": 34409,
        "meta_element_set_no": 999,
        "meta_rev_at_epoch": 89162,
        "meta_bstar": 0.00043949,
        "meta_mean_motion_dot": 2.08e-05,
        "meta_mean_motion_ddot": 0,
        "tle_line1": "1 34409U 93036RA  25344.65419446  .00002080  00000+0  43949-3 0  9999",
        "tle_line2": "2 34409  74.0642 310.7983 0079750  25.6783 151.2638 14.58019012891628"
      },
      "geometry": {
        "type": "Point",
        "coordinates": [
          -31.426751322945215,
          49.146889190225565
        ]
      }
    },
    {
      "type": "Feature",
      "properties": {
        "norad_id": 34410,
        "name": "COSMOS 2251 DEB",
        "group": "cosmos-2251-debris",
        "lat": 10.695735607137047,
        "lon": 81.32021596785172,
        "alt_km": 504.5142830531595,
        "timestamp": "2025-12-11T10:53:16.284118+00:00",
        "meta_object_name": "COSMOS 2251 DEB",
        "meta_object_id": "1993-036RB",
        "meta_epoch": "2025-12-10T18:28:29.474976",
        "meta_mean_motion": 15.1861006,
        "meta_eccentricity": 0.00205813,
        "meta_inclination": 73.7363,
        "meta_ra_of_asc_node": 265.9371,
        "meta_arg_of_pericenter": 107.0788,
        "meta_mean_anomaly": 284.1596,
        "meta_ephemeris_type": 0,
        "meta_classification_type": "U",
        "meta_norad_cat_id": 34410,
        "meta_element_set_no": 999,
        "meta_rev_at_epoch": 89744,
        "meta_bstar": 0.0037019701,
        "meta_mean_motion_dot": 0.00077837,
        "meta_mean_motion_ddot": 0,
        "tle_line1": "1 34410U 93036RB  25344.76978559  .00077837  00000+0  37020-2 0  9992",
        "tle_line2": "2 34410  73.7363 265.9371 0020581 107.0788 284.1596 15.18610060897448"
      },
      "geometry": {
        "type": "Point",
        "coordinates": [
          81.32021596785172,
          10.695735607137047
        ]
      }
    },
    {
      "type": "Feature",
      "properties": {
        "norad_id": 34412,
        "name": "COSMOS 2251 DEB",
        "group": "cosmos-2251-debris",
        "lat": -47.78875036169717,
        "lon": -51.47620486581688,
        "alt_km": 790.9386713034501,
        "timestamp": "2025-12-11T10:53:16.284129+00:00",
        "meta_object_name": "COSMOS 2251 DEB",
        "meta_object_id": "1993-036RD",
        "meta_epoch": "2025-12-10T16:52:09.598368",
        "meta_mean_motion": 14.47095265,
        "meta_eccentricity": 0.01871186,
        "meta_inclination": 73.9487,
        "meta_ra_of_asc_node": 328.4399,
        "meta_arg_of_pericenter": 63.9955,
        "meta_mean_anomaly": 298.0341,
        "meta_ephemeris_type": 0,
        "meta_classification_type": "U",
        "meta_norad_cat_id": 34412,
        "meta_element_set_no": 999,
        "meta_rev_at_epoch": 87621,
        "meta_bstar": 0.00186252,
        "meta_mean_motion_dot": 8.435e-05,
        "meta_mean_motion_ddot": 0,
        "tle_line1": "1 34412U 93036RD  25344.70288887  .00008435  00000+0  18625-2 0  9994",
        "tle_line2": "2 34412  73.9487 328.4399 0187118  63.9955 298.0341 14.47095265876219"
      },
      "geometry": {
        "type": "Point",
        "coordinates": [
          -51.47620486581688,
          -47.78875036169717
        ]
      }
    },
    {
      "type": "Feature",
      "properties": {
        "norad_id": 34413,
        "name": "COSMOS 2251 DEB",
        "group": "cosmos-2251-debris",
        "lat": 12.560780595652709,
        "lon": 83.55603448332926,
        "alt_km": 860.7399082570819,
        "timestamp": "2025-12-11T10:53:16.284139+00:00",
        "meta_object_name": "COSMOS 2251 DEB",
        "meta_object_id": "1993-036RE",
        "meta_epoch": "2025-12-11T05:46:30.093312",
        "meta_mean_motion": 14.29078941,
        "meta_eccentricity": 0.0090875,
        "meta_inclination": 74.031,
        "meta_ra_of_asc_node": 267.6007,
        "meta_arg_of_pericenter": 344.3301,
        "meta_mean_anomaly": 166.981,
        "meta_ephemeris_type": 0,
        "meta_classification_type": "U",
        "meta_norad_cat_id": 34413,
        "meta_element_set_no": 999,
        "meta_rev_at_epoch": 87109,
        "meta_bstar": 0.0024034,
        "meta_mean_motion_dot": 6.346e-05,
        "meta_mean_motion_ddot": 0,
        "tle_line1": "1 34413U 93036RE  25345.24062608  .00006346  00000+0  24034-2 0  9996",
        "tle_line2": "2 34413  74.0310 267.6007 0090875 344.3301 166.9810 14.29078941871098"
      },
      "geometry": {
        "type": "Point",
        "coordinates": [
          83.55603448332926,
          12.560780595652709
        ]
      }
    }
  ]
}